[{"OBJECT_NAME":"STARLINK-36096","OBJECT_ID":"2025-286AA","EPOCH":"2026-03-09T23:23:50.261856","MEAN_MOTION":15.30214827,"ECCENTRICITY":0.0001305,"INCLINATION":53.1625,"RA_OF_ASC_NODE":356.8936,"ARG_OF_PERICENTER":111.6885,"MEAN_ANOMALY":248.4255,"EPHEMERIS_TYPE":0,"CLASSIFICATION_TYPE":"U","NORAD_CAT_ID":66949,"ELEMENT_SET_NO":999,"REV_AT_EPOCH":1546,"BSTAR":0.0012270777,"MEAN_MOTION_DOT":0.00036177,"MEAN_MOTION_DDOT":0},{"OBJECT_NAME":"SL-19 R\/B","OBJECT_ID":"2011-005B","EPOCH":"2026-03-09T21:50:35.538720","MEAN_MOTION":15.57556472,"ECCENTRICITY":0.01260184,"INCLINATION":99.3438,"RA_OF_ASC_NODE":178.5978,"ARG_OF_PERICENTER":174.8144,"MEAN_ANOMALY":185.4445,"EPHEMERIS_TYPE":0,"CLASSIFICATION_TYPE":"U","NORAD_CAT_ID":37363,"ELEMENT_SET_NO":999,"REV_AT_EPOCH":82354,"BSTAR":0.00054776137,"MEAN_MOTION_DOT":0.00058791,"MEAN_MOTION_DDOT":0}]
